KUIPER-00074            
1 64821U 25151F   25229.93814465  .00030490  00000+0  86786-3 0  9998
2 64821  51.8780 130.0829 0004786 266.2071  93.8368 15.35850358  5010
KUIPER-00075            
1 64822U 25151G   25229.99759965  .00027964  00000+0  77486-3 0  9997
2 64822  51.8786 129.7416 0004483 253.7818 106.2675 15.36736476  5024
KUIPER-00076            
1 64823U 25151H   25229.94062938  .00015527  00000+0  44957-3 0  9999
2 64823  51.8767 130.0985 0005036 259.4962 100.5457 15.35751361  5011
KUIPER-00077            
1 64824U 25151J   25229.94314816  .00024841  00000+0  71205-3 0  9990
2 64824  51.8792 130.1248 0005781 265.2382  94.7943 15.35737752  5013
KUIPER-00078            
1 64825U 25151K   25229.94249238  .00029874  00000+0  85279-3 0  9993
2 64825  51.8783 130.1141 0006025 271.3605  88.6691 15.35764605  5013
KUIPER-00079            
1 64826U 25151L   25230.16670139  .00062528  00000+0  22356-2 0  9997
2 64826  51.8790 129.1831 0005260 267.0093 168.7402 15.28208596  6249
KUIPER-00080            
1 64827U 25151M   25230.02087367  .00018362  00000+0  62858-3 0  9997
2 64827  51.8792 129.9083 0003044 288.8633  71.2020 15.30272838  5020
KUIPER-00082            
1 64828U 25151N   25229.99807932  .00029578  00000+0  83356-3 0  9997
2 64828  51.8789 129.7396 0004901 255.7083 104.3359 15.36177212  5026
KUIPER-00083            
1 64829U 25151P   25229.87611482  .00027087  00000+0  77335-3 0  9991
2 64829  51.8769 130.4163 0005538 264.2586  95.7769 15.35814815  6199
KUIPER-00084            
1 64830U 25151Q   25230.16670139  .00059468  00000+0  29799-2 0  9999
2 64830  51.8889 130.4824 0006968 252.1688 250.7984 15.16776267  5025
KUIPER-00085            
1 64831U 25151R   25230.12548381  .00039042  00000+0  10904-2 0  9993
2 64831  51.8791 129.0966 0005778 252.9624 107.0730 15.36317097  5044
KUIPER-00086            
1 64832U 25151S   25230.16670139  .00071084  00000+0  21025-2 0  9993
2 64832  51.8779 129.0737 0006026 272.2102 226.0389 15.34246328  5037
KUIPER-00087            
1 64833U 25151T   25230.00029943  .00028414  00000+0  80531-3 0  9995
2 64833  51.8781 129.7559 0005441 270.5784  89.4579 15.36018745  5020
KUIPER-00089            
1 64834U 25151U   25230.13656621  .00030408  00000+0  86738-3 0  9990
2 64834  51.8779 129.1711 0005653 273.1990  86.8349 15.35780714  5044
KUIPER-00090            
1 64835U 25151V   25230.01124630  .00014874  00000+0  43427-3 0  9995
2 64835  51.8774 129.8274 0005500 277.4073  82.6288 15.35523596  5017
KUIPER-00091            
1 64836U 25151W   25230.12749214  .00023177  00000+0  65719-3 0  9993
2 64836  51.8788 129.1064 0005472 251.6413 108.3978 15.36121237  5045
KUIPER-00092            
1 64837U 25151X   25229.93555064  .00025811  00000+0  73105-3 0  9994
2 64837  51.8767 130.0653 0005479 259.0080 101.0290 15.36092632  6221
KUIPER-00093            
1 64838U 25151Y   25230.13563388  .00028599  00000+0  81623-3 0  9997
2 64838  51.8792 129.1663 0004931 263.5592  96.4833 15.35799443  5042
KUIPER-00094            
1 64839U 25151Z   25228.76410977  .00036930  00000+0  10427-2 0  9990
2 64839  51.8765 135.7150 0005452 260.4492  99.5879 15.36005181  4831
